{"type": "FeatureCollection", "features": [ {"type": "Feature", "properties": {"norad_id": 34117, "name": "COSMOS 2251 DEB", "group": "cosmos-2251-debris", "lat": -40.06624389503273, "lon": -166.3888150332329, "alt_km": 795.8237026892366, "timestamp": "2025-12-04T03:47:54.935808+00:00", "meta": {"OBJECT_NAME": "COSMOS 2251 DEB", "OBJECT_ID": "1993-036KN", "EPOCH": "2025-12-03T11:46:09.168096", "MEAN_MOTION": 14.39951111, "ECCENTRICITY": 0.005438, "INCLINATION": 74.0402, "RA_OF_ASC_NODE": 0.9171, "ARG_OF_PERICENTER": 80.0984, "MEAN_ANOMALY": 280.6303, "EPHEMERIS_TYPE": 0, "CLASSIFICATION_TYPE": "U", "NORAD_CAT_ID": 34117, "ELEMENT_SET_NO": 999, "REV_AT_EPOCH": 87990, "BSTAR": 0.00088582, "MEAN_MOTION_DOT": 2.811e-05, "MEAN_MOTION_DDOT": 0}, "tle": {"line1": "1 34117U 93036KN  25337.49038389  .00002811  00000+0  88582-3 0  9996", "line2": "2 34117  74.0402   0.9171 0054380  80.0984 280.6303 14.39951111879902"}}, "geometry": {"type": "Point", "coordinates": [-166.3888150332329, -40.06624389503273]}}, {"type": "Feature", "properties": {"norad_id": 34118, "name": "COSMOS 2251 DEB", "group": "cosmos-2251-debris", "lat": 68.04376430597796, "lon": -47.77745312206688, "alt_km": 542.3385369679481, "timestamp": "2025-12-04T03:47:54.935818+00:00", "meta": {"OBJECT_NAME": "COSMOS 2251 DEB", "OBJECT_ID": "1993-036KP", "EPOCH": "2025-12-03T05:38:41.418240", "MEAN_MOTION": 14.93289774, "ECCENTRICITY": 0.0060061, "INCLINATION": 73.9529, "RA_OF_ASC_NODE": 268.5284, "ARG_OF_PERICENTER": 101.0881, "MEAN_ANOMALY": 53.749, "EPHEMERIS_TYPE": 0, "CLASSIFICATION_TYPE": "U", "NORAD_CAT_ID": 34118, "ELEMENT_SET_NO": 999, "REV_AT_EPOCH": 89034, "BSTAR": 0.0026457, "MEAN_MOTION_DOT": 0.00028783, "MEAN_MOTION_DDOT": 0}, "tle": {"line1": "1 34118U 93036KP  25337.23520160  .00028783  00000+0  26457-2 0  9990", "line2": "2 34118  73.9529 268.5284 0060061 101.0881  53.7490 14.93289774890347"}}, "geometry": {"type": "Point", "coordinates": [-47.77745312206688, 68.04376430597796]}}, {"type": "Feature", "properties": {"norad_id": 34120, "name": "COSMOS 2251 DEB", "group": "cosmos-2251-debris", "lat": 2.2908281138881197, "lon": 50.426185026467266, "alt_km": 958.2989521564523, "timestamp": "2025-12-04T03:47:54.935828+00:00", "meta": {"OBJECT_NAME": "COSMOS 2251 DEB", "OBJECT_ID": "1993-036KR", "EPOCH": "2025-12-03T10:20:32.281152", "MEAN_MOTION": 13.98666007, "ECCENTRICITY": 0.0181577, "INCLINATION": 73.9919, "RA_OF_ASC_NODE": 232.3436, "ARG_OF_PERICENTER": 62.1363, "MEAN_ANOMALY": 52.5871, "EPHEMERIS_TYPE": 0, "CLASSIFICATION_TYPE": "U", "NORAD_CAT_ID": 34120, "ELEMENT_SET_NO": 999, "REV_AT_EPOCH": 85850, "BSTAR": 0.00052966, "MEAN_MOTION_DOT": 8.53e-06, "MEAN_MOTION_DDOT": 0}, "tle": {"line1": "1 34120U 93036KR  25337.43092918  .00000853  00000+0  52966-3 0  9993", "line2": "2 34120  73.9919 232.3436 0181577  62.1363  52.5871 13.98666007858503"}}, "geometry": {"type": "Point", "coordinates": [50.426185026467266, 2.2908281138881197]}}, {"type": "Feature", "properties": {"norad_id": 34121, "name": "COSMOS 2251 DEB", "group": "cosmos-2251-debris", "lat": -51.58940734590203, "lon": -46.896840554739974, "alt_km": 908.0872363263079, "timestamp": "2025-12-04T03:47:54.935839+00:00", "meta": {"OBJECT_NAME": "COSMOS 2251 DEB", "OBJECT_ID": "1993-036KS", "EPOCH": "2025-12-03T11:28:29.928288", "MEAN_MOTION": 13.91879229, "ECCENTRICITY": 0.0239728, "INCLINATION": 73.9914, "RA_OF_ASC_NODE": 113.0405, "ARG_OF_PERICENTER": 320.4822, "MEAN_ANOMALY": 110.0204, "EPHEMERIS_TYPE": 0, "CLASSIFICATION_TYPE": "U", "NORAD_CAT_ID": 34121, "ELEMENT_SET_NO": 999, "REV_AT_EPOCH": 84996, "BSTAR": 0.0014014, "MEAN_MOTION_DOT": 2.232e-05, "MEAN_MOTION_DDOT": 0}, "tle": {"line1": "1 34121U 93036KS  25337.47812417  .00002232  00000+0  14014-2 0  9996", "line2": "2 34121  73.9914 113.0405 0239728 320.4822 110.0204 13.91879229849967"}}, "geometry": {"type": "Point", "coordinates": [-46.896840554739974, -51.58940734590203]}}, {"type": "Feature", "properties": {"norad_id": 34122, "name": "COSMOS 2251 DEB", "group": "cosmos-2251-debris", "lat": 31.11391915761497, "lon": 145.09136546893174, "alt_km": 616.3428438337678, "timestamp": "2025-12-04T03:47:54.935849+00:00", "meta": {"OBJECT_NAME": "COSMOS 2251 DEB", "OBJECT_ID": "1993-036KT", "EPOCH": "2025-12-03T05:30:23.463072", "MEAN_MOTION": 14.64845738, "ECCENTRICITY": 0.0083845, "INCLINATION": 74.0346, "RA_OF_ASC_NODE": 136.927, "ARG_OF_PERICENTER": 36.5409, "MEAN_ANOMALY": 139.9278, "EPHEMERIS_TYPE": 0, "CLASSIFICATION_TYPE": "U", "NORAD_CAT_ID": 34122, "ELEMENT_SET_NO": 999, "REV_AT_EPOCH": 88545, "BSTAR": 0.0014464, "MEAN_MOTION_DOT": 8.111e-05, "MEAN_MOTION_DDOT": 0}, "tle": {"line1": "1 34122U 93036KT  25337.22943823  .00008111  00000+0  14464-2 0  9997", "line2": "2 34122  74.0346 136.9270 0083845  36.5409 139.9278 14.64845738885450"}}, "geometry": {"type": "Point", "coordinates": [145.09136546893174, 31.11391915761497]}}, {"type": "Feature", "properties": {"norad_id": 34127, "name": "COSMOS 2251 DEB", "group": "cosmos-2251-debris", "lat": -69.74209817009947, "lon": -70.43476662603294, "alt_km": 712.0976128769253, "timestamp": "2025-12-04T03:47:54.935858+00:00", "meta": {"OBJECT_NAME": "COSMOS 2251 DEB", "OBJECT_ID": "1993-036KY", "EPOCH": "2025-12-03T11:34:32.988864", "MEAN_MOTION": 14.31380495, "ECCENTRICITY": 0.0114615, "INCLINATION": 74.1802, "RA_OF_ASC_NODE": 60.5926, "ARG_OF_PERICENTER": 262.7201, "MEAN_ANOMALY": 112.7932, "EPHEMERIS_TYPE": 0, "CLASSIFICATION_TYPE": "U", "NORAD_CAT_ID": 34127, "ELEMENT_SET_NO": 999, "REV_AT_EPOCH": 86639, "BSTAR": 0.0029196, "MEAN_MOTION_DOT": 8.301e-05, "MEAN_MOTION_DDOT": 0}, "tle": {"line1": "1 34127U 93036KY  25337.48232626  .00008301  00000+0  29196-2 0  9991", "line2": "2 34127  74.1802  60.5926 0114615 262.7201 112.7932 14.31380495866392"}}, "geometry": {"type": "Point", "coordinates": [-70.43476662603294, -69.74209817009947]}}, {"type": "Feature", "properties": {"norad_id": 34128, "name": "COSMOS 2251 DEB", "group": "cosmos-2251-debris", "lat": 54.131292865491865, "lon": 110.84571922664202, "alt_km": 549.457814968946, "timestamp": "2025-12-04T03:47:54.935869+00:00", "meta": {"OBJECT_NAME": "COSMOS 2251 DEB", "OBJECT_ID": "1993-036KZ", "EPOCH": "2025-12-03T08:37:28.644384", "MEAN_MOTION": 15.00393553, "ECCENTRICITY": 0.0026502, "INCLINATION": 73.9994, "RA_OF_ASC_NODE": 315.8558, "ARG_OF_PERICENTER": 69.3798, "MEAN_ANOMALY": 59.3304, "EPHEMERIS_TYPE": 0, "CLASSIFICATION_TYPE": "U", "NORAD_CAT_ID": 34128, "ELEMENT_SET_NO": 999, "REV_AT_EPOCH": 89026, "BSTAR": 0.0026759, "MEAN_MOTION_DOT": 0.00034003, "MEAN_MOTION_DDOT": 0}, "tle": {"line1": "1 34128U 93036KZ  25337.35935931  .00034003  00000+0  26759-2 0  9997", "line2": "2 34128  73.9994 315.8558 0026502  69.3798  59.3304 15.00393553890266"}}, "geometry": {"type": "Point", "coordinates": [110.84571922664202, 54.131292865491865]}}, {"type": "Feature", "properties": {"norad_id": 34129, "name": "COSMOS 2251 DEB", "group": "cosmos-2251-debris", "lat": 72.22517353261001, "lon": 113.06827522784472, "alt_km": 614.338159998616, "timestamp": "2025-12-04T03:47:54.935879+00:00", "meta": {"OBJECT_NAME": "COSMOS 2251 DEB", "OBJECT_ID": "1993-036LA", "EPOCH": "2025-12-03T11:05:10.385664", "MEAN_MOTION": 14.75477287, "ECCENTRICITY": 0.0032675, "INCLINATION": 74.0354, "RA_OF_ASC_NODE": 357.6785, "ARG_OF_PERICENTER": 82.4134, "MEAN_ANOMALY": 278.0749, "EPHEMERIS_TYPE": 0, "CLASSIFICATION_TYPE": "U", "NORAD_CAT_ID": 34129, "ELEMENT_SET_NO": 999, "REV_AT_EPOCH": 61161, "BSTAR": 0.0015598, "MEAN_MOTION_DOT": 0.00010687, "MEAN_MOTION_DDOT": 0}, "tle": {"line1": "1 34129U 93036LA  25337.46192576  .00010687  00000+0  15598-2 0  9991", "line2": "2 34129  74.0354 357.6785 0032675  82.4134 278.0749 14.75477287611614"}}, "geometry": {"type": "Point", "coordinates": [113.06827522784472, 72.22517353261001]}}, {"type": "Feature", "properties": {"norad_id": 34136, "name": "COSMOS 2251 DEB", "group": "cosmos-2251-debris", "lat": 60.37158080134346, "lon": -150.6952493464984, "alt_km": 601.5350906142421, "timestamp": "2025-12-04T03:47:54.935889+00:00", "meta": {"OBJECT_NAME": "COSMOS 2251 DEB", "OBJECT_ID": "1993-036LH", "EPOCH": "2025-12-03T12:44:22.428960", "MEAN_MOTION": 14.79955898, "ECCENTRICITY": 0.0086607, "INCLINATION": 74.0219, "RA_OF_ASC_NODE": 60.7925, "ARG_OF_PERICENTER": 186.157, "MEAN_ANOMALY": 188.3891, "EPHEMERIS_TYPE": 0, "CLASSIFICATION_TYPE": "U", "NORAD_CAT_ID": 34136, "ELEMENT_SET_NO": 999, "REV_AT_EPOCH": 89874, "BSTAR": 0.00086189, "MEAN_MOTION_DOT": 6.914e-05, "MEAN_MOTION_DDOT": 0}, "tle": {"line1": "1 34136U 93036LH  25337.53081515  .00006914  00000+0  86189-3 0  9990", "line2": "2 34136  74.0219  60.7925 0086607 186.1570 188.3891 14.79955898898745"}}, "geometry": {"type": "Point", "coordinates": [-150.6952493464984, 60.37158080134346]}}, {"type": "Feature", "properties": {"norad_id": 34139, "name": "COSMOS 2251 DEB", "group": "cosmos-2251-debris", "lat": 49.494762560769665, "lon": 70.83199015423672, "alt_km": 716.672408652199, "timestamp": "2025-12-04T03:47:54.935899+00:00", "meta": {"OBJECT_NAME": "COSMOS 2251 DEB", "OBJECT_ID": "1993-036LL", "EPOCH": "2025-12-02T21:52:21.942912", "MEAN_MOTION": 14.58823939, "ECCENTRICITY": 0.00426199, "INCLINATION": 74.0311, "RA_OF_ASC_NODE": 272.7918, "ARG_OF_PERICENTER": 345.4381, "MEAN_ANOMALY": 76.0951, "EPHEMERIS_TYPE": 0, "CLASSIFICATION_TYPE": "U", "NORAD_CAT_ID": 34139, "ELEMENT_SET_NO": 999, "REV_AT_EPOCH": 88006, "BSTAR": 0.0022795968, "MEAN_MOTION_DOT": 0.00010785, "MEAN_MOTION_DDOT": 0}, "tle": {"line1": "1 34139U 93036LL  25336.91136508  .00010785  00000+0  22796-2 0  9991", "line2": "2 34139  74.0311 272.7918 0042619 345.4381  76.0951 14.58823939880066"}}, "geometry": {"type": "Point", "coordinates": [70.83199015423672, 49.494762560769665]}}]}